{
  "type": "FeatureCollection",
  "features": [
    {
      "type": "Feature",
      "properties": {
        "norad_id": 46277,
        "name": "NEMO-HD",
        "group": "resource",
        "lat": -24.034204731768437,
        "lon": -131.63941671147427,
        "alt_km": 451.3584866352994,
        "timestamp": "2025-12-18T13:51:49.318476+00:00",
        "meta_object_name": "NEMO-HD",
        "meta_object_id": "2020-061F",
        "meta_epoch": "2025-12-18T06:44:39.577632",
        "meta_mean_motion": 15.40440857,
        "meta_eccentricity": 0.00015258,
        "meta_inclination": 97.221,
        "meta_ra_of_asc_node": 51.309,
        "meta_arg_of_pericenter": 51.9186,
        "meta_mean_anomaly": 308.2198,
        "meta_ephemeris_type": 0,
        "meta_classification_type": "U",
        "meta_norad_cat_id": 46277,
        "meta_element_set_no": 999,
        "meta_rev_at_epoch": 29409,
        "meta_bstar": 0.0002188661,
        "meta_mean_motion_dot": 8.778e-05,
        "meta_mean_motion_ddot": 0,
        "tle_line1": "1 46277U 20061F   25352.28101363  .00008778  00000+0  21887-3 0  9994",
        "tle_line2": "2 46277  97.2210  51.3090 0001525  51.9186 308.2198 15.40440857294093"
      },
      "geometry": {
        "type": "Point",
        "coordinates": [
          -131.63941671147427,
          -24.034204731768437
        ]
      }
    },
    {
      "type": "Feature",
      "properties": {
        "norad_id": 46984,
        "name": "SENTINEL-6A",
        "group": "resource",
        "lat": 15.637137502821961,
        "lon": 157.33217530575212,
        "alt_km": 1339.2653814182604,
        "timestamp": "2025-12-18T13:51:49.318486+00:00",
        "meta_object_name": "SENTINEL-6A",
        "meta_object_id": "2020-086A",
        "meta_epoch": "2025-12-18T04:24:19.097568",
        "meta_mean_motion": 12.80930811,
        "meta_eccentricity": 0.0007711,
        "meta_inclination": 66.0391,
        "meta_ra_of_asc_node": 151.0009,
        "meta_arg_of_pericenter": 269.2836,
        "meta_mean_anomaly": 90.7296,
        "meta_ephemeris_type": 0,
        "meta_classification_type": "U",
        "meta_norad_cat_id": 46984,
        "meta_element_set_no": 999,
        "meta_rev_at_epoch": 23714,
        "meta_bstar": 2.9219684e-05,
        "meta_mean_motion_dot": -5.4e-07,
        "meta_mean_motion_ddot": 0,
        "tle_line1": "1 46984U 20086A   25352.18355437 -.00000054  00000+0  29220-4 0  9998",
        "tle_line2": "2 46984  66.0391 151.0009 0007711 269.2836  90.7296 12.80930811237149"
      },
      "geometry": {
        "type": "Point",
        "coordinates": [
          157.33217530575212,
          15.637137502821961
        ]
      }
    },
    {
      "type": "Feature",
      "properties": {
        "norad_id": 48079,
        "name": "GAOFEN-12 02",
        "group": "resource",
        "lat": 46.324043456725605,
        "lon": 175.0099809254472,
        "alt_km": 621.3198230512971,
        "timestamp": "2025-12-18T13:51:49.318496+00:00",
        "meta_object_name": "GAOFEN-12 02",
        "meta_object_id": "2021-026A",
        "meta_epoch": "2025-12-18T06:46:40.419264",
        "meta_mean_motion": 14.80681856,
        "meta_eccentricity": 0.00036022,
        "meta_inclination": 97.9853,
        "meta_ra_of_asc_node": 346.2621,
        "meta_arg_of_pericenter": 90.077,
        "meta_mean_anomaly": 270.0855,
        "meta_ephemeris_type": 0,
        "meta_classification_type": "U",
        "meta_norad_cat_id": 48079,
        "meta_element_set_no": 999,
        "meta_rev_at_epoch": 25499,
        "meta_bstar": 6.1591722e-05,
        "meta_mean_motion_dot": 4.21e-06,
        "meta_mean_motion_ddot": 0,
        "tle_line1": "1 48079U 21026A   25352.28241226  .00000421  00000+0  61592-4 0  9996",
        "tle_line2": "2 48079  97.9853 346.2621 0003602  90.0770 270.0855 14.80681856254992"
      },
      "geometry": {
        "type": "Point",
        "coordinates": [
          175.0099809254472,
          46.324043456725605
        ]
      }
    },
    {
      "type": "Feature",
      "properties": {
        "norad_id": 48268,
        "name": "PLEIADES NEO 3",
        "group": "resource",
        "lat": -40.408589708338816,
        "lon": -121.84935812917259,
        "alt_km": 631.1446295518008,
        "timestamp": "2025-12-18T13:51:49.318507+00:00",
        "meta_object_name": "PLEIADES NEO 3",
        "meta_object_id": "2021-034A",
        "meta_epoch": "2025-12-18T11:14:58.570944",
        "meta_mean_motion": 14.81671671,
        "meta_eccentricity": 0.0001334,
        "meta_inclination": 97.8948,
        "meta_ra_of_asc_node": 64.8276,
        "meta_arg_of_pericenter": 96.0456,
        "meta_mean_anomaly": 264.0909,
        "meta_ephemeris_type": 0,
        "meta_classification_type": "U",
        "meta_norad_cat_id": 48268,
        "meta_element_set_no": 999,
        "meta_rev_at_epoch": 25089,
        "meta_bstar": 0.00012826,
        "meta_mean_motion_dot": 9.57e-06,
        "meta_mean_motion_ddot": 0,
        "tle_line1": "1 48268U 21034A   25352.46873346  .00000957  00000+0  12826-3 0  9998",
        "tle_line2": "2 48268  97.8948  64.8276 0001334  96.0456 264.0909 14.81671671250895"
      },
      "geometry": {
        "type": "Point",
        "coordinates": [
          -121.84935812917259,
          -40.408589708338816
        ]
      }
    },
    {
      "type": "Feature",
      "properties": {
        "norad_id": 49070,
        "name": "PLEIADES NEO 4",
        "group": "resource",
        "lat": 40.26266611164141,
        "lon": 58.181571936675084,
        "alt_km": 620.3804670989366,
        "timestamp": "2025-12-18T13:51:49.318517+00:00",
        "meta_object_name": "PLEIADES NEO 4",
        "meta_object_id": "2021-073E",
        "meta_epoch": "2025-12-18T07:11:50.609184",
        "meta_mean_motion": 14.81673871,
        "meta_eccentricity": 0.00012302,
        "meta_inclination": 97.895,
        "meta_ra_of_asc_node": 64.6572,
        "meta_arg_of_pericenter": 92.7216,
        "meta_mean_anomaly": 267.4137,
        "meta_ephemeris_type": 0,
        "meta_classification_type": "U",
        "meta_norad_cat_id": 49070,
        "meta_element_set_no": 999,
        "meta_rev_at_epoch": 23458,
        "meta_bstar": 3.1473577e-05,
        "meta_mean_motion_dot": 1.96e-06,
        "meta_mean_motion_ddot": 0,
        "tle_line1": "1 49070U 21073E   25352.29989131  .00000196  00000+0  31474-4 0  9990",
        "tle_line2": "2 49070  97.8950  64.6572 0001230  92.7216 267.4137 14.81673871234581"
      },
      "geometry": {
        "type": "Point",
        "coordinates": [
          58.181571936675084,
          40.26266611164141
        ]
      }
    },
    {
      "type": "Feature",
      "properties": {
        "norad_id": 49260,
        "name": "LANDSAT 9",
        "group": "resource",
        "lat": -78.54966413435199,
        "lon": -164.85054974471717,
        "alt_km": 710.6556272077669,
        "timestamp": "2025-12-18T13:51:49.318527+00:00",
        "meta_object_name": "LANDSAT 9",
        "meta_object_id": "2021-088A",
        "meta_epoch": "2025-12-18T04:25:28.544160",
        "meta_mean_motion": 14.57103516,
        "meta_eccentricity": 0.00011117,
        "meta_inclination": 98.2089,
        "meta_ra_of_asc_node": 60.2164,
        "meta_arg_of_pericenter": 90.4341,
        "meta_mean_anomaly": 269.6985,
        "meta_ephemeris_type": 0,
        "meta_classification_type": "U",
        "meta_norad_cat_id": 49260,
        "meta_element_set_no": 999,
        "meta_rev_at_epoch": 22464,
        "meta_bstar": 8.8610258e-05,
        "meta_mean_motion_dot": 3.54e-06,
        "meta_mean_motion_ddot": 0,
        "tle_line1": "1 49260U 21088A   25352.18435815  .00000354  00000+0  88610-4 0  9990",
        "tle_line2": "2 49260  98.2089  60.2164 0001111  90.4341 269.6985 14.57103516224649"
      },
      "geometry": {
        "type": "Point",
        "coordinates": [
          -164.85054974471717,
          -78.54966413435199
        ]
      }
    },
    {
      "type": "Feature",
      "properties": {
        "norad_id": 51444,
        "name": "CSG-2",
        "group": "resource",
        "lat": 79.82885693248876,
        "lon": 123.28037951965935,
        "alt_km": 614.1228017621715,
        "timestamp": "2025-12-18T13:51:49.318537+00:00",
        "meta_object_name": "CSG-2",
        "meta_object_id": "2022-008A",
        "meta_epoch": "2025-12-18T07:00:25.845984",
        "meta_mean_motion": 14.82150537,
        "meta_eccentricity": 0.00014836,
        "meta_inclination": 97.88,
        "meta_ra_of_asc_node": 173.5308,
        "meta_arg_of_pericenter": 84.0063,
        "meta_mean_anomaly": 276.1319,
        "meta_ephemeris_type": 0,
        "meta_classification_type": "U",
        "meta_norad_cat_id": 51444,
        "meta_element_set_no": 999,
        "meta_rev_at_epoch": 20979,
        "meta_bstar": 7.9138075e-05,
        "meta_mean_motion_dot": 5.78e-06,
        "meta_mean_motion_ddot": 0,
        "tle_line1": "1 51444U 22008A   25352.29196581  .00000578  00000+0  79138-4 0  9999",
        "tle_line2": "2 51444  97.8800 173.5308 0001483  84.0063 276.1319 14.82150537209798"
      },
      "geometry": {
        "type": "Point",
        "coordinates": [
          123.28037951965935,
          79.82885693248876
        ]
      }
    }
  ]
}